{
  "norad_id": 47143,
  "name": "STARLINK-1856",
  "history": [
    {
      "epoch": "2026-03-28T22:00:01.999584Z",
      "apogee_km": 411.16152952817174,
      "perigee_km": 407.1651670830888,
      "latitude_deg": -18.06485377379997,
      "longitude_deg": -141.3677098430199,
      "height_km": 412.9795762054672,
      "semi_major_axis_km": 6787.30034830563,
      "eccentricity": 0.0002944,
      "inclination_deg": 53.0493,
      "raan_deg": 180.8493,
      "arg_perigee_deg": 258.5272,
      "mean_anomaly_deg": 304.1054,
      "mean_motion_rev_day": 15.52591343
    },
    {
      "epoch": "2026-03-29T06:00:02.998944Z",
      "apogee_km": 411.0533482845358,
      "perigee_km": 407.10047490242323,
      "latitude_deg": -53.091383332108435,
      "longitude_deg": 167.4085457663177,
      "height_km": 425.56085344125273,
      "semi_major_axis_km": 6787.21391159348,
      "eccentricity": 0.0002912,
      "inclination_deg": 53.0497,
      "raan_deg": 179.2423,
      "arg_perigee_deg": 257.9107,
      "mean_anomaly_deg": 8.9681,
      "mean_motion_rev_day": 15.52621002
    },
    {
      "epoch": "2026-03-30T06:00:01.999296Z",
      "apogee_km": 410.2300955501087,
      "perigee_km": 406.44595707543704,
      "latitude_deg": 52.06715989190124,
      "longitude_deg": 3.0941626559938356,
      "height_km": 416.4575551284248,
      "semi_major_axis_km": 6786.475026312773,
      "eccentricity": 0.0002788,
      "inclination_deg": 53.0504,
      "raan_deg": 174.4241,
      "arg_perigee_deg": 267.8978,
      "mean_anomaly_deg": 192.0813,
      "mean_motion_rev_day": 15.52874574
    },
    {
      "epoch": "2026-03-30T06:00:02.000160Z",
      "apogee_km": 410.2299598206082,
      "perigee_km": 406.4460928049375,
      "latitude_deg": 52.06715978764048,
      "longitude_deg": 3.0941598045229797,
      "height_km": 416.4574223806324,
      "semi_major_axis_km": 6786.475026312773,
      "eccentricity": 0.00027878,
      "inclination_deg": 53.0504,
      "raan_deg": 174.4241,
      "arg_perigee_deg": 267.8978,
      "mean_anomaly_deg": 192.0813,
      "mean_motion_rev_day": 15.52874574
    },
    {
      "epoch": "2026-03-30T14:00:03.000384Z",
      "apogee_km": 410.0110441186134,
      "perigee_km": 406.2217359506858,
      "latitude_deg": 12.249954730460882,
      "longitude_deg": -54.51228626908195,
      "height_km": 408.96135396322416,
      "semi_major_axis_km": 6786.253390034649,
      "eccentricity": 0.00027919,
      "inclination_deg": 53.0503,
      "raan_deg": 172.8196,
      "arg_perigee_deg": 276.7611,
      "mean_anomaly_deg": 247.8676,
      "mean_motion_rev_day": 15.52950649
    },
    {
      "epoch": "2026-03-30T22:00:00.999936Z",
      "apogee_km": 409.73048838408886,
      "perigee_km": 405.87973767262974,
      "latitude_deg": -37.39601923212877,
      "longitude_deg": -132.2177352278287,
      "height_km": 418.582912882888,
      "semi_major_axis_km": 6785.942113028359,
      "eccentricity": 0.00028373,
      "inclination_deg": 53.05,
      "raan_deg": 171.2118,
      "arg_perigee_deg": 276.428,
      "mean_anomaly_deg": 312.7366,
      "mean_motion_rev_day": 15.53057503
    },
    {
      "epoch": "2026-03-31T20:00:01.999008Z",
      "apogee_km": 409.08895538345405,
      "perigee_km": 405.2511857043555,
      "latitude_deg": -32.820347265431955,
      "longitude_deg": 8.734490841792303,
      "height_km": 415.78487004217646,
      "semi_major_axis_km": 6785.307070543905,
      "eccentricity": 0.0002828,
      "inclination_deg": 53.0491,
      "raan_deg": 166.7929,
      "arg_perigee_deg": 285.2752,
      "mean_anomaly_deg": 32.3023,
      "mean_motion_rev_day": 15.53275536
    },
    {
      "epoch": "2026-04-01T20:00:01.999008Z",
      "apogee_km": 408.4231619282282,
      "perigee_km": 404.6508831716901,
      "latitude_deg": 21.35153491131193,
      "longitude_deg": -165.23145919371524,
      "height_km": 408.4698791251134,
      "semi_major_axis_km": 6784.674022549959,
      "eccentricity": 0.000278,
      "inclination_deg": 53.0493,
      "raan_deg": 161.97,
      "arg_perigee_deg": 288.8413,
      "mean_anomaly_deg": 224.1439,
      "mean_motion_rev_day": 15.53492935
    },
    {
      "epoch": "2026-04-02T20:00:01.999008Z",
      "apogee_km": 407.6912937620182,
      "perigee_km": 404.00080698261445,
      "latitude_deg": -8.813574360471705,
      "longitude_deg": 19.300478484763836,
      "height_km": 407.1132380647094,
      "semi_major_axis_km": 6783.983050372316,
      "eccentricity": 0.000272,
      "inclination_deg": 53.0492,
      "raan_deg": 157.1453,
      "arg_perigee_deg": 299.3237,
      "mean_anomaly_deg": 49.7655,
      "mean_motion_rev_day": 15.53730284
    },
    {
      "epoch": "2026-04-02T22:00:01.999584Z",
      "apogee_km": 407.64831051284636,
      "perigee_km": 404.0088486587101,
      "latitude_deg": 52.85521239868639,
      "longitude_deg": 94.56592749232566,
      "height_km": 413.9627615060745,
      "semi_major_axis_km": 6783.965579585778,
      "eccentricity": 0.00026824,
      "inclination_deg": 53.0494,
      "raan_deg": 156.7429,
      "arg_perigee_deg": 297.5142,
      "mean_anomaly_deg": 157.9615,
      "mean_motion_rev_day": 15.53736286
    },
    {
      "epoch": "2026-04-03T20:00:01.999008Z",
      "apogee_km": 407.0035065391612,
      "perigee_km": 403.25914242404724,
      "latitude_deg": -4.960106741046676,
      "longitude_deg": -156.12895298605798,
      "height_km": 407.725414636686,
      "semi_major_axis_km": 6783.268324481604,
      "eccentricity": 0.000276,
      "inclination_deg": 53.0482,
      "raan_deg": 152.3191,
      "arg_perigee_deg": 305.5193,
      "mean_anomaly_deg": 240.5808,
      "mean_motion_rev_day": 15.53975856
    },
    {
      "epoch": "2026-04-04T06:00:02.000160Z",
      "apogee_km": 406.43888348595465,
      "perigee_km": 402.8745253942716,
      "latitude_deg": -1.2566354113235565,
      "longitude_deg": -133.2137140870997,
      "height_km": 404.60467241038026,
      "semi_major_axis_km": 6782.793704440112,
      "eccentricity": 0.00026275,
      "inclination_deg": 53.0483,
      "raan_deg": 150.3075,
      "arg_perigee_deg": 307.4861,
      "mean_anomaly_deg": 51.0286,
      "mean_motion_rev_day": 15.54138966
    },
    {
      "epoch": "2026-04-05T14:00:03.000384Z",
      "apogee_km": 405.69667770760225,
      "perigee_km": 401.73322778937745,
      "latitude_deg": -52.72723537061732,
      "longitude_deg": -0.6364792420051815,
      "height_km": 420.92494462666133,
      "semi_major_axis_km": 6781.85195274849,
      "eccentricity": 0.00029221,
      "inclination_deg": 53.0484,
      "raan_deg": 143.8691,
      "arg_perigee_deg": 320.3768,
      "mean_anomaly_deg": 303.2134,
      "mean_motion_rev_day": 15.54462697
    },
    {
      "epoch": "2026-04-05T20:00:03.000384Z",
      "apogee_km": 405.3617540866944,
      "perigee_km": 401.51931225639964,
      "latitude_deg": -33.528998876068016,
      "longitude_deg": -141.77290352459772,
      "height_km": 414.1726939409944,
      "semi_major_axis_km": 6781.577533171547,
      "eccentricity": 0.0002833,
      "inclination_deg": 53.0485,
      "raan_deg": 142.6597,
      "arg_perigee_deg": 319.8138,
      "mean_anomaly_deg": 263.6395,
      "mean_motion_rev_day": 15.54557051
    }
  ]
}